LEO 1 (LEO VANTAGE 1)   
1 43113U 18004C   26068.70632107  .00005709  00000+0  39603-3 0  9997
2 43113  99.2469 334.0284 0352942  24.8540 336.9207 14.67184901422891
STARLINK-32780          
1 62746U 25014M   26068.23528148  .00024532  00000+0  89767-3 0  9997
2 62746  43.0027 157.3244 0001702 263.2687  96.7971 15.27593172 63182
